IRIDIUM 106             
1 41917U 17003A   24313.80738897  .00000183  00000+0  58212-4 0  9999
2 41917  86.3959 333.1660 0002519  84.2638 275.8845 14.34216087409305
IRIDIUM 103             
1 41918U 17003B   24314.49238909  .00000731  00000+0  25409-3 0  9995
2 41918  86.3960 332.7805 0002885  94.5527 265.5998 14.34218228409439
IRIDIUM 109             
1 41919U 17003C   24314.42893655  .00000374  00000+0  12645-3 0  9995
2 41919  86.3963 332.8575 0002274  97.6021 262.5433 14.34204369409402
IRIDIUM 102             
1 41920U 17003D   24314.32748007  .00000987  00000+0  34535-3 0  9998
2 41920  86.3963 332.8355 0002164  91.4233 268.7210 14.34219079409455
IRIDIUM 105             
1 41921U 17003E   24314.01915681  .00000563  00000+0  19401-3 0  9994
2 41921  86.3927 301.3856 0002430  85.5514 274.5959 14.34211447411263
IRIDIUM 104             
1 41922U 17003F   24314.13086077  .00000179  00000+0  56892-4 0  9995
2 41922  86.3960 332.9515 0002380 107.5597 252.5859 14.34217401409418
IRIDIUM 114             
1 41923U 17003G   24314.41627750  .00000908  00000+0  31715-3 0  9992
2 41923  86.3958 332.8176 0002525  91.7629 268.3856 14.34218717409456
IRIDIUM 108             
1 41924U 17003H   24313.81664265 -.00000144  00000+0 -58374-4 0  9993
2 41924  86.3916 301.3857 0002164  81.5398 278.6043 14.34215458411204
